{
    "links": {
        "self": "http://www.neowsapp.com/rest/v1/neo/3837562?api_key=iIulBulltgU6a56xZRHN4H3l9WmuAYTsLGpBGhQ2"
    },
    "id": "3837562",
    "neo_reference_id": "3837562",
    "name": "(2019 AQ)",
    "designation": "2019 AQ",
    "nasa_jpl_url": "http://ssd.jpl.nasa.gov/sbdb.cgi?sstr=3837562",
    "absolute_magnitude_h": 23.2,
    "estimated_diameter": {
        "kilometers": {
            "estimated_diameter_min": 0.0608912622,
            "estimated_diameter_max": 0.1361570015
        },
        "meters": {
            "estimated_diameter_min": 60.8912622106,
            "estimated_diameter_max": 136.1570015386
        },
        "miles": {
            "estimated_diameter_min": 0.0378360645,
            "estimated_diameter_max": 0.0846040122
        },
        "feet": {
            "estimated_diameter_min": 199.7744887109,
            "estimated_diameter_max": 446.7093369279
        }
    },
    "is_potentially_hazardous_asteroid": false,
    "close_approach_data": [
        {
            "close_approach_date": "2019-01-11",
            "close_approach_date_full": "2019-Jan-11 17:29",
            "epoch_date_close_approach": 1547227740000,
            "relative_velocity": {
                "kilometers_per_second": "22.1775481831",
                "kilometers_per_hour": "79839.1734592003",
                "miles_per_hour": "49608.9575308014"
            },
            "miss_distance": {
                "astronomical": "0.095315551",
                "lunar": "37.077749339",
                "kilometers": "14259003.40747637",
                "miles": "8860133.867539106"
            },
            "orbiting_body": "Earth"
        }
    ],
    "orbital_data": {
        "orbit_id": "3",
        "orbit_determination_date": "2019-01-09 07:19:38",
        "first_observation_date": "2019-01-02",
        "last_observation_date": "2019-01-09",
        "data_arc_in_days": 7,
        "observations_used": 26,
        "orbit_uncertainty": "9",
        "minimum_orbit_intersection": ".0726125",
        "jupiter_tisserand_invariant": "3.595",
        "epoch_osculation": "2458486.5",
        "eccentricity": ".7451890838236951",
        "semi_major_axis": "1.858500010204821",
        "inclination": "4.339477949362053",
        "ascending_node_longitude": "210.2926976011933",
        "orbital_period": "925.4272394914269",
        "perihelion_distance": ".4735660903139626",
        "perihelion_argument": "359.7642723737508",
        "aphelion_distance": "3.24343393009568",
        "perihelion_time": "2458541.098799677961",
        "mean_anomaly": "338.7605475122304",
        "mean_motion": ".3890095132685307",
        "equinox": "J2000",
        "orbit_class": {
            "orbit_class_type": "APO",
            "orbit_class_description": "Near-Earth asteroid orbits which cross the Earth’s orbit similar to that of 1862 Apollo",
            "orbit_class_range": "a (semi-major axis) > 1.0 AU; q (perihelion) < 1.017 AU"
        }
    },
    "is_sentry_object": false
}